OBJECT_NAME,OBJECT_ID,EPOCH,MEAN_MOTION,ECCENTRICITY,INCLINATION,RA_OF_ASC_NODE,ARG_OF_PERICENTER,MEAN_ANOMALY,EPHEMERIS_TYPE,CLASSIFICATION_TYPE,NORAD_CAT_ID,ELEMENT_SET_NO,REV_AT_EPOCH,BSTAR,MEAN_MOTION_DOT,MEAN_MOTION_DDOT
STARLINK-1679,2020-070AB,2026-05-12T19:46:09.209280,15.71117932,.00087486,53.0411,169.3035,26.0356,334.1099,0,U,46557,999,31028,.52089236E-3,.67003E-3,0
STARLINK-1714,2020-070AG,2026-05-12T19:41:24.573984,15.67043982,.00090375,53.0387,164.7800,11.0356,349.0855,0,U,46562,999,31035,.44453996E-3,.4809E-3,0
STARLINK-1730,2020-070AH,2026-05-13T02:14:58.237440,15.54819335,.0006029,53.0269,173.5076,9.2760,350.8360,0,U,46563,999,31025,.13439095E-2,.91756E-3,0
STARLINK-1733,2020-070AJ,2026-05-13T11:12:35.528832,16.13132048,.0007001,53.0252,138.4719,31.4974,328.6479,0,U,46564,999,31075,.13613E-2,.1581632E-1,.19546E-2
STARLINK-1735,2020-070AK,2026-05-12T07:58:12.379872,15.75214773,.0011732,53.0362,164.7733,21.6136,338.5375,0,U,46565,999,31030,.50283E-3,.77381E-3,0
STARLINK-1741,2020-070AM,2026-05-13T01:27:44.769312,15.78151758,.00101325,53.0374,159.1643,26.5216,333.6320,0,U,46567,999,31045,.63206223E-3,.111349E-2,0
STARLINK-1531,2020-070AS,2026-05-12T13:16:47.311104,15.78448663,.0008805,53.0502,183.5135,48.0572,312.1197,0,U,46572,999,31006,.5775E-3,.102866E-2,0
STARLINK-1677,2020-070AW,2026-05-13T08:00:01.000224,15.83593965,.00105102,53.0280,162.6888,17.7749,52.6371,0,U,46576,999,601,.38304078E-4,.7876E-4,0
STARLINK-1728,2020-070BC,2026-05-12T09:48:24.265152,15.66323265,.0011287,53.0350,174.9923,14.2260,345.9070,0,U,46582,999,31017,.47508E-3,.50016E-3,0
STARLINK-1736,2020-070BF,2026-05-13T08:00:01.000224,15.85027274,.00104689,53.0327,153.8800,26.3451,342.4189,0,U,46585,999,595,.31999016E-3,.77044E-3,0
STARLINK-1746,2020-070BJ,2026-05-13T12:21:21.381984,16.11578402,.0008518,53.0236,146.5534,22.9324,337.2088,0,U,46588,999,31066,.85793E-3,.920417E-2,.50988E-3
GAOFEN-13 01,2020-071A,2026-05-12T23:42:03.722976,1.00266724,.00421987,0.4293,84.9755,122.4335,137.0403,0,U,46610,999,2056,0,-.349E-5,0
STARLINK-1716,2020-073C,2026-05-13T00:40:59.496096,15.79923715,.00040392,53.0390,242.1675,284.3089,75.7483,0,U,46672,999,30782,.67658875E-3,.129154E-2,0
STARLINK-1718,2020-073E,2026-05-13T02:32:32.863488,15.68239920,.00026414,53.0435,272.9955,204.9131,155.1758,0,U,46674,999,30739,.55642968E-3,.63371E-3,0
STARLINK-1781,2020-073R,2026-05-12T23:49:11.506656,15.68189658,.00029394,53.0459,289.0063,203.3627,156.7256,0,U,46685,999,30715,.56383985E-3,.64098E-3,0
STARLINK-1784,2020-073T,2026-05-12T23:28:34.687200,15.75629932,.00029617,53.0396,229.3602,4.5234,355.5812,0,U,46687,999,30799,.61370278E-3,.96171E-3,0
STARLINK-1788,2020-073V,2026-05-13T01:49:43.875264,15.76322575,.0004589,53.0361,260.3690,301.2882,58.7687,0,U,46689,999,30881,.66010643E-3,.106872E-2,0
STARLINK-1790,2020-073X,2026-05-13T11:52:11.341344,16.29169957,.0012611,53.0230,229.0028,320.5206,39.4916,0,U,46691,999,30803,.94127E-3,.4172551E-1,.12107E-4
STARLINK-1795,2020-073AC,2026-05-13T08:00:01.000224,15.86418571,.00105502,53.0343,218.4571,337.8857,50.4923,0,U,46696,999,600,.38350446E-3,.99239E-3,0
STARLINK-1797,2020-073AE,2026-05-12T18:07:27.070752,15.65151336,.0005208,53.0414,256.6917,310.2115,49.8443,0,U,46698,999,30759,.45798342E-3,.45828E-3,0
STARLINK-1801,2020-073AH,2026-05-13T08:00:01.000224,15.97508896,.0011042,53.0346,232.4342,351.5981,331.6093,0,U,46701,999,604,.59407814E-3,.269873E-2,.40571003E-4
STARLINK-1802,2020-073AJ,2026-05-12T10:09:18.349920,15.35613759,.0001912,53.1587,279.9627,282.9882,77.0907,0,U,46702,999,30725,.7491E-3,.26019E-3,0
STARLINK-1805,2020-073AM,2026-05-11T17:52:27.391872,15.64790586,.00011737,53.0458,297.2081,206.3495,153.7459,0,U,46705,999,30693,.54819851E-3,.54203E-3,0
STARLINK-1807,2020-073AN,2026-05-13T03:22:35.362848,15.28932705,.00014492,53.0581,290.0196,350.3291,9.7680,0,U,46706,999,30716,.95213151E-3,.26865E-3,0
STARLINK-1810,2020-073AR,2026-05-13T03:01:38.131392,15.58513243,.00032128,53.0426,281.4941,308.8641,51.2083,0,U,46709,999,30727,.10209831E-2,.79729E-3,0
STARLINK-1815,2020-073AV,2026-05-13T08:00:01.000224,15.87117868,.00070392,53.0391,239.3790,315.7800,276.0180,0,U,46713,999,590,.41283323E-3,.110512E-2,0
STARLINK-1816,2020-073AW,2026-05-13T05:09:50.452992,16.07690961,.00140945,53.0272,231.7786,336.7520,23.2874,0,U,46714,999,30797,.78063057E-3,.657204E-2,.23072467E-3
STARLINK-1817,2020-073AX,2026-05-13T01:40:51.504384,15.74357650,.00012638,53.0446,259.8150,27.2038,332.9046,0,U,46715,999,30757,.57853048E-3,.85598E-3,0
STARLINK-1821,2020-073BA,2026-05-13T04:43:59.604960,15.46806321,.00010902,53.0455,280.4815,23.6573,336.4483,0,U,46718,999,30730,.36923772E-3,.1843E-3,0
STARLINK-1826,2020-073BF,2026-05-12T16:09:57.929760,15.72773890,.00067434,53.0428,225.5904,11.8681,348.2495,0,U,46723,999,30802,.53056201E-3,.73236E-3,0
STARLINK-1828,2020-073BH,2026-05-12T16:22:23.545344,15.65402357,.00047436,53.0493,284.8781,247.0873,112.9642,0,U,46725,999,30719,.45357638E-3,.45838E-3,0
STARLINK-1830,2020-073BK,2026-05-13T05:54:28.809792,15.67522919,.00055554,53.0380,227.9282,308.3786,51.6730,0,U,46727,999,30804,.43725189E-3,.48168E-3,0
STARLINK-1892,2020-074E,2026-05-12T20:18:51.876864,15.64175257,.00047195,53.0429,342.2184,225.1632,134.8999,0,U,46743,999,30707,.65359538E-3,.63259E-3,0
STARLINK-1905,2020-074H,2026-05-12T22:29:18.521088,15.77318342,.0004661,53.0392,325.8541,199.5559,160.5282,0,U,46746,999,30730,.62785E-3,.106212E-2,0
STARLINK-1911,2020-074L,2026-05-13T01:17:11.700096,16.03276256,.00094315,53.0366,313.4906,272.8233,87.1719,0,U,46749,999,30748,.72556989E-3,.46106E-2,.10734238E-3
STARLINK-1922,2020-074Q,2026-05-12T19:17:15.182880,15.79628044,.00054259,53.0413,326.0321,210.8831,149.1871,0,U,46753,999,30729,.64954709E-3,.122248E-2,0
STARLINK-1928,2020-074V,2026-05-13T00:00:02.998944,15.82725481,.0006474,53.0402,324.6679,220.5828,14.1767,0,U,46758,999,600,.60977E-3,.132666E-2,0
STARLINK-1835,2020-074AV,2026-05-12T22:36:37.980000,15.69541120,.0007404,53.0427,319.5978,191.9892,168.0949,0,U,46782,999,30739,.4859E-3,.58362E-3,0
STARLINK-1882,2020-074AX,2026-05-12T12:14:18.667392,15.76199932,.0001786,53.0470,319.6756,289.3109,70.7717,0,U,46784,999,30735,.60058E-3,.96488E-3,0
STARLINK-1893,2020-074AZ,2026-05-13T00:00:02.998944,15.60298733,.0005572,53.0454,313.0802,222.5866,179.1018,0,U,46786,999,590,.11383E-2,.95444E-3,0
STARLINK-1931,2020-074BD,2026-05-13T00:00:02.998944,15.80951641,.0004581,53.0395,324.0871,237.9358,19.7765,0,U,46790,999,594,.70698E-3,.141753E-2,0
STARLINK-1942,2020-074BH,2026-05-13T00:21:47.225088,15.58742548,.00059255,53.0425,344.0841,186.5611,173.5324,0,U,46794,999,30706,.10825689E-2,.8541E-3,0
STARLINK-1944,2020-074BK,2026-05-13T04:56:58.519968,15.79025759,.00041799,53.0394,311.0731,214.4722,145.6027,0,U,46796,999,30753,.57630711E-3,.105206E-2,0
COSMOS 2547 [GLONASS-K],2020-075A,2026-05-12T06:44:08.827008,2.13100308,.00087324,64.5971,193.6738,237.5791,122.4119,0,U,46805,999,4314,0,.61E-6,0
YAOGAN-30 08A,2020-076A,2026-05-13T03:57:33.996384,15.02532698,.00006862,34.9948,304.6672,296.7214,63.3424,0,U,46807,999,30284,.12675655E-3,.169E-4,0
YAOGAN-30 08B,2020-076B,2026-05-12T21:03:02.716128,15.02548556,.00006865,34.9952,306.1816,355.4472,4.6230,0,U,46808,999,30291,.12938319E-3,.1726E-4,0
YAOGAN-30 08C,2020-076C,2026-05-13T04:29:48.284160,15.02514604,.00053764,34.9971,304.1703,124.1344,235.9875,0,U,46809,999,30287,.11472266E-3,.1526E-4,0
TIANQI-6,2020-076D,2026-05-12T18:17:37.230144,15.06949186,.00106234,34.9993,265.8385,220.1034,139.8892,0,U,46810,999,30323,.15464252E-3,.2334E-4,0
CE-SAT IIB,2020-077F,2026-05-13T07:27:46.336608,15.90791144,.00028912,97.2014,213.7820,226.0350,134.0686,0,U,46818,999,30972,.32545814E-3,.100089E-2,.5740098E-5
NAVSTAR 80 (USA 309),2020-078A,2026-05-09T09:10:38.672256,2.00564987,.0071735,53.9857,212.3527,206.1053,156.6468,0,U,46826,999,4073,0,.3E-7,0
RISAT-2BR2,2020-081A,2026-05-13T04:05:03.050016,15.01408011,.00124103,36.8982,72.1916,239.4688,120.4828,0,U,46905,999,30220,.12324593E-3,.1544E-4,0
KSM1-C,2020-081B,2026-05-13T07:05:36.409920,15.26163034,.00030031,36.8937,274.2531,277.5333,82.5075,0,U,46906,999,30383,.22889356E-3,.596E-4,0
KSM1-D,2020-081C,2026-05-13T02:54:15.391008,15.24226159,.00048719,36.8968,283.6764,312.9507,47.0833,0,U,46907,999,30374,.17587303E-3,.4294E-4,0
KSM1-A,2020-081H,2026-05-12T18:10:59.708928,15.25411303,.0002871,36.8964,279.6988,4.2721,355.8052,0,U,46912,999,30376,.19391121E-3,.4918E-4,0
R2,2020-081J,2026-05-12T16:50:30.652224,15.24919932,.00075228,36.8978,279.8492,334.8883,25.1499,0,U,46913,999,30656,.20445918E-3,.5117E-4,0
KSM1-B,2020-081K,2026-05-12T19:00:41.194080,15.24024165,.00062547,36.9020,286.2205,331.8082,28.2327,0,U,46914,999,30678,.19613643E-3,.4772E-4,0
TIANTONG-1 2,2020-082A,2026-05-13T06:34:52.450752,1.00269306,.00017618,0.8394,322.6855,85.7355,46.2807,0,U,46916,999,2030,0,-.344E-5,0
DRAGRACER 2 (AUGURY),2020-085AC,2026-05-13T00:48:28.564416,15.68638195,.00051942,97.5820,326.3193,49.6118,310.5595,0,U,46955,999,30635,.19564407E-3,.22109E-3,0
SENTINEL-6A,2020-086A,2026-05-13T04:27:10.835712,12.80931140,.00078727,66.0407,207.7510,270.1790,89.8323,0,U,46984,999,25584,.8776881E-5,-.59E-6,0
STARLINK-1777,2020-088A,2026-05-12T20:31:20.230464,15.64652423,.00051502,53.0484,331.9517,173.0211,187.0876,0,U,47122,999,30209,.46100905E-3,.45216E-3,0
STARLINK-1812,2020-088E,2026-05-12T22:26:55.656096,15.19057694,.0003066,53.0818,6.5625,96.9571,263.1772,0,U,47126,999,30162,.88143E-3,.18433E-3,0
STARLINK-1845,2020-088P,2026-05-12T22:21:52.996032,15.67256569,.0004666,53.0482,323.7846,160.2099,199.9098,0,U,47135,999,30221,.53273E-3,.58232E-3,0
STARLINK-1856,2020-088X,2026-05-13T08:00:01.000224,15.65632598,.00007365,53.0467,320.1456,6.5174,261.0420,0,U,47143,999,595,.10683593E-2,.110558E-2,0
STARLINK-1871,2020-088AM,2026-05-13T04:47:14.174304,15.33718715,.00013558,53.1595,356.2141,202.3786,157.7157,0,U,47157,999,30180,.56767044E-3,.18443E-3,0
